[
  {
    "OBJECT_NAME": "STARLINK-5384",
    "OBJECT_ID": "22177S",
    "EPOCH": "2025-11-11T06:22:56.840160",
    "MEAN_MOTION": 15.02539361,
    "ECCENTRICITY": 0.0001417,
    "INCLINATION": 43.0054,
    "RA_OF_ASC_NODE": 56.6061,
    "ARG_OF_PERICENTER": 266.8446,
    "MEAN_ANOMALY": 93.2235,
    "EPHEMERIS_TYPE": 0,
    "CLASSIFICATION_TYPE": "U",
    "NORAD_CAT_ID": 54836,
    "ELEMENT_SET_NO": 999,
    "REV_AT_EPOCH": 15915,
    "BSTAR": 0.0,
    "MEAN_MOTION_DOT": -3.081e-05,
    "MEAN_MOTION_DDOT": 0.0,
    "TLE_LINE1": "1 54836U 22177S   25315.26593565 -.00003081  00000+0 -21305-3 0  9999",
    "TLE_LINE2": "2 54836  43.0054  56.6061 0001417 266.8446  93.2235 15.02539361159157",
    "COMMENT": "Grouped by shell and plane from TLE"
  },
  {
    "OBJECT_NAME": "STARLINK-5369",
    "OBJECT_ID": "22177T",
    "EPOCH": "2025-11-11T06:24:32.790816",
    "MEAN_MOTION": 15.02538439,
    "ECCENTRICITY": 0.000114,
    "INCLINATION": 43.0036,
    "RA_OF_ASC_NODE": 56.6186,
    "ARG_OF_PERICENTER": 275.8921,
    "MEAN_ANOMALY": 84.1791,
    "EPHEMERIS_TYPE": 0,
    "CLASSIFICATION_TYPE": "U",
    "NORAD_CAT_ID": 54837,
    "ELEMENT_SET_NO": 999,
    "REV_AT_EPOCH": 15914,
    "BSTAR": 0.00012405,
    "MEAN_MOTION_DOT": 1.473e-05,
    "MEAN_MOTION_DDOT": 0.0,
    "TLE_LINE1": "1 54837U 22177T   25315.26704619  .00001473  00000+0  12405-3 0  9996",
    "TLE_LINE2": "2 54837  43.0036  56.6186 0001140 275.8921  84.1791 15.02538439159147",
    "COMMENT": "Grouped by shell and plane from TLE"
  },
  {
    "OBJECT_NAME": "STARLINK-5372",
    "OBJECT_ID": "22177U",
    "EPOCH": "2025-11-11T06:13:21.425664",
    "MEAN_MOTION": 15.02538601,
    "ECCENTRICITY": 0.0001271,
    "INCLINATION": 43.0038,
    "RA_OF_ASC_NODE": 56.5617,
    "ARG_OF_PERICENTER": 269.0797,
    "MEAN_ANOMALY": 90.99,
    "EPHEMERIS_TYPE": 0,
    "CLASSIFICATION_TYPE": "U",
    "NORAD_CAT_ID": 54838,
    "ELEMENT_SET_NO": 999,
    "REV_AT_EPOCH": 15914,
    "BSTAR": 4.0926e-05,
    "MEAN_MOTION_DOT": 3.49e-06,
    "MEAN_MOTION_DDOT": 0.0,
    "TLE_LINE1": "1 54838U 22177U   25315.25927576  .00000349  00000+0  40926-4 0  9996",
    "TLE_LINE2": "2 54838  43.0038  56.5617 0001271 269.0797  90.9900 15.02538601159147",
    "COMMENT": "Grouped by shell and plane from TLE"
  },
  {
    "OBJECT_NAME": "STARLINK-4659",
    "OBJECT_ID": "22177X",
    "EPOCH": "2025-11-11T06:18:09.041760",
    "MEAN_MOTION": 15.02538435,
    "ECCENTRICITY": 0.0001304,
    "INCLINATION": 43.0043,
    "RA_OF_ASC_NODE": 56.5843,
    "ARG_OF_PERICENTER": 269.3908,
    "MEAN_ANOMALY": 90.6785,
    "EPHEMERIS_TYPE": 0,
    "CLASSIFICATION_TYPE": "U",
    "NORAD_CAT_ID": 54841,
    "ELEMENT_SET_NO": 999,
    "REV_AT_EPOCH": 15914,
    "BSTAR": 0.00018567,
    "MEAN_MOTION_DOT": 2.305e-05,
    "MEAN_MOTION_DDOT": 0.0,
    "TLE_LINE1": "1 54841U 22177X   25315.26260465  .00002305  00000+0  18567-3 0  9997",
    "TLE_LINE2": "2 54841  43.0043  56.5843 0001304 269.3908  90.6785 15.02538435159145",
    "COMMENT": "Grouped by shell and plane from TLE"
  },
  {
    "OBJECT_NAME": "STARLINK-5387",
    "OBJECT_ID": "22177Y",
    "EPOCH": "2025-11-11T07:26:42.779904",
    "MEAN_MOTION": 15.02536515,
    "ECCENTRICITY": 0.0001132,
    "INCLINATION": 43.0038,
    "RA_OF_ASC_NODE": 56.084,
    "ARG_OF_PERICENTER": 276.7829,
    "MEAN_ANOMALY": 83.2884,
    "EPHEMERIS_TYPE": 0,
    "CLASSIFICATION_TYPE": "U",
    "NORAD_CAT_ID": 54842,
    "ELEMENT_SET_NO": 999,
    "REV_AT_EPOCH": 15915,
    "BSTAR": 6.5706e-05,
    "MEAN_MOTION_DOT": 6.84e-06,
    "MEAN_MOTION_DDOT": 0.0,
    "TLE_LINE1": "1 54842U 22177Y   25315.31021736  .00000684  00000+0  65706-4 0  9996",
    "TLE_LINE2": "2 54842  43.0038  56.0840 0001132 276.7829  83.2884 15.02536515159151",
    "COMMENT": "Grouped by shell and plane from TLE"
  },
  {
    "OBJECT_NAME": "STARLINK-5304",
    "OBJECT_ID": "22177Z",
    "EPOCH": "2025-11-11T06:08:33.975456",
    "MEAN_MOTION": 15.02538189,
    "ECCENTRICITY": 0.0001235,
    "INCLINATION": 43.0041,
    "RA_OF_ASC_NODE": 56.5363,
    "ARG_OF_PERICENTER": 274.9498,
    "MEAN_ANOMALY": 85.1204,
    "EPHEMERIS_TYPE": 0,
    "CLASSIFICATION_TYPE": "U",
    "NORAD_CAT_ID": 54843,
    "ELEMENT_SET_NO": 999,
    "REV_AT_EPOCH": 15914,
    "BSTAR": 4.4151000000000005e-05,
    "MEAN_MOTION_DOT": 3.93e-06,
    "MEAN_MOTION_DDOT": 0.0,
    "TLE_LINE1": "1 54843U 22177Z   25315.25594879  .00000393  00000+0  44151-4 0  9991",
    "TLE_LINE2": "2 54843  43.0041  56.5363 0001235 274.9498  85.1204 15.02538189159142",
    "COMMENT": "Grouped by shell and plane from TLE"
  },
  {
    "OBJECT_NAME": "STARLINK-5388",
    "OBJECT_ID": "22177AA",
    "EPOCH": "2025-11-11T07:20:17.124000",
    "MEAN_MOTION": 15.02540823,
    "ECCENTRICITY": 8.79e-05,
    "INCLINATION": 43.0032,
    "RA_OF_ASC_NODE": 56.031,
    "ARG_OF_PERICENTER": 270.3855,
    "MEAN_ANOMALY": 89.6886,
    "EPHEMERIS_TYPE": 0,
    "CLASSIFICATION_TYPE": "U",
    "NORAD_CAT_ID": 54844,
    "ELEMENT_SET_NO": 999,
    "REV_AT_EPOCH": 15915,
    "BSTAR": 0.00021351,
    "MEAN_MOTION_DOT": 2.682e-05,
    "MEAN_MOTION_DDOT": 0.0,
    "TLE_LINE1": "1 54844U 22177AA  25315.30575375  .00002682  00000+0  21351-3 0  9997",
    "TLE_LINE2": "2 54844  43.0032  56.0310 0000879 270.3855  89.6886 15.02540823159154",
    "COMMENT": "Grouped by shell and plane from TLE"
  },
  {
    "OBJECT_NAME": "STARLINK-5082",
    "OBJECT_ID": "22177AB",
    "EPOCH": "2025-11-11T07:31:30.355392",
    "MEAN_MOTION": 15.02538915,
    "ECCENTRICITY": 0.0001241,
    "INCLINATION": 43.0046,
    "RA_OF_ASC_NODE": 56.1055,
    "ARG_OF_PERICENTER": 270.3258,
    "MEAN_ANOMALY": 89.7442,
    "EPHEMERIS_TYPE": 0,
    "CLASSIFICATION_TYPE": "U",
    "NORAD_CAT_ID": 54845,
    "ELEMENT_SET_NO": 999,
    "REV_AT_EPOCH": 15915,
    "BSTAR": 2.6675e-05,
    "MEAN_MOTION_DOT": 1.57e-06,
    "MEAN_MOTION_DDOT": 0.0,
    "TLE_LINE1": "1 54845U 22177AB  25315.31354578  .00000157  00000+0  26675-4 0  9999",
    "TLE_LINE2": "2 54845  43.0046  56.1055 0001241 270.3258  89.7442 15.02538915159156",
    "COMMENT": "Grouped by shell and plane from TLE"
  },
  {
    "OBJECT_NAME": "STARLINK-5360",
    "OBJECT_ID": "22177AC",
    "EPOCH": "2025-11-11T07:21:54.799200",
    "MEAN_MOTION": 15.02540728,
    "ECCENTRICITY": 0.0001365,
    "INCLINATION": 43.0051,
    "RA_OF_ASC_NODE": 56.059,
    "ARG_OF_PERICENTER": 269.8596,
    "MEAN_ANOMALY": 90.209,
    "EPHEMERIS_TYPE": 0,
    "CLASSIFICATION_TYPE": "U",
    "NORAD_CAT_ID": 54846,
    "ELEMENT_SET_NO": 999,
    "REV_AT_EPOCH": 15915,
    "BSTAR": 0.00010255,
    "MEAN_MOTION_DOT": 1.182e-05,
    "MEAN_MOTION_DDOT": 0.0,
    "TLE_LINE1": "1 54846U 22177AC  25315.30688425  .00001182  00000+0  10255-3 0  9995",
    "TLE_LINE2": "2 54846  43.0051  56.0590 0001365 269.8596  90.2090 15.02540728159152",
    "COMMENT": "Grouped by shell and plane from TLE"
  },
  {
    "OBJECT_NAME": "STARLINK-30795",
    "OBJECT_ID": "23162A",
    "EPOCH": "2025-11-11T06:06:59.940288",
    "MEAN_MOTION": 15.02537149,
    "ECCENTRICITY": 0.0001291,
    "INCLINATION": 43.0036,
    "RA_OF_ASC_NODE": 56.694,
    "ARG_OF_PERICENTER": 275.3254,
    "MEAN_ANOMALY": 84.7441,
    "EPHEMERIS_TYPE": 0,
    "CLASSIFICATION_TYPE": "U",
    "NORAD_CAT_ID": 58118,
    "ELEMENT_SET_NO": 999,
    "REV_AT_EPOCH": 11448,
    "BSTAR": 0.00013056000000000002,
    "MEAN_MOTION_DOT": 1.56e-05,
    "MEAN_MOTION_DDOT": 0.0,
    "TLE_LINE1": "1 58118U 23162A   25315.25486042  .00001560  00000+0  13056-3 0  9993",
    "TLE_LINE2": "2 58118  43.0036  56.6940 0001291 275.3254  84.7441 15.02537149114485",
    "COMMENT": "Grouped by shell and plane from TLE"
  },
  {
    "OBJECT_NAME": "STARLINK-30765",
    "OBJECT_ID": "23162B",
    "EPOCH": "2025-11-11T06:32:33.862560",
    "MEAN_MOTION": 15.02539781,
    "ECCENTRICITY": 0.0001369,
    "INCLINATION": 43.0052,
    "RA_OF_ASC_NODE": 56.8109,
    "ARG_OF_PERICENTER": 265.5771,
    "MEAN_ANOMALY": 94.4915,
    "EPHEMERIS_TYPE": 0,
    "CLASSIFICATION_TYPE": "U",
    "NORAD_CAT_ID": 58119,
    "ELEMENT_SET_NO": 999,
    "REV_AT_EPOCH": 11448,
    "BSTAR": 0.00013814,
    "MEAN_MOTION_DOT": 1.663e-05,
    "MEAN_MOTION_DDOT": 0.0,
    "TLE_LINE1": "1 58119U 23162B   25315.27261415  .00001663  00000+0  13814-3 0  9997",
    "TLE_LINE2": "2 58119  43.0052  56.8109 0001369 265.5771  94.4915 15.02539781114482",
    "COMMENT": "Grouped by shell and plane from TLE"
  },
  {
    "OBJECT_NAME": "STARLINK-30768",
    "OBJECT_ID": "23162C",
    "EPOCH": "2025-11-11T07:37:56.049312",
    "MEAN_MOTION": 15.02532705,
    "ECCENTRICITY": 0.0001325,
    "INCLINATION": 43.0041,
    "RA_OF_ASC_NODE": 56.3086,
    "ARG_OF_PERICENTER": 281.3518,
    "MEAN_ANOMALY": 78.7175,
    "EPHEMERIS_TYPE": 0,
    "CLASSIFICATION_TYPE": "U",
    "NORAD_CAT_ID": 58120,
    "ELEMENT_SET_NO": 999,
    "REV_AT_EPOCH": 11449,
    "BSTAR": 5.7268e-05,
    "MEAN_MOTION_DOT": 5.7e-06,
    "MEAN_MOTION_DDOT": 0.0,
    "TLE_LINE1": "1 58120U 23162C   25315.31800983  .00000570  00000+0  57268-4 0  9991",
    "TLE_LINE2": "2 58120  43.0041  56.3086 0001325 281.3518  78.7175 15.02532705114491",
    "COMMENT": "Grouped by shell and plane from TLE"
  },
  {
    "OBJECT_NAME": "STARLINK-30799",
    "OBJECT_ID": "23162D",
    "EPOCH": "2025-11-11T06:30:59.827392",
    "MEAN_MOTION": 15.02509043,
    "ECCENTRICITY": 9.62e-05,
    "INCLINATION": 43.0113,
    "RA_OF_ASC_NODE": 56.8019,
    "ARG_OF_PERICENTER": 278.5184,
    "MEAN_ANOMALY": 81.5549,
    "EPHEMERIS_TYPE": 0,
    "CLASSIFICATION_TYPE": "U",
    "NORAD_CAT_ID": 58121,
    "ELEMENT_SET_NO": 999,
    "REV_AT_EPOCH": 11448,
    "BSTAR": 0.00023619000000000003,
    "MEAN_MOTION_DOT": 2.986e-05,
    "MEAN_MOTION_DDOT": 0.0,
    "TLE_LINE1": "1 58121U 23162D   25315.27152578  .00002986  00000+0  23619-3 0  9992",
    "TLE_LINE2": "2 58121  43.0113  56.8019 0000962 278.5184  81.5549 15.02509043114481",
    "COMMENT": "Grouped by shell and plane from TLE"
  }
]